GLOBALSTAR M023         
1 25621U 99004A   24221.88899156 -.00000106  00000+0 -11418-4 0  9990
2 25621  52.0107 284.3780 0010458 157.2517 339.9786 12.62463713176375
GLOBALSTAR M036         
1 25623U 99004C   24221.70926337  .00000003  00000+0  12560-2 0  9996
2 25623  51.9997 343.9292 0011441 167.6023 339.3132 11.86573833141867
GLOBALSTAR M038         
1 25624U 99004D   24221.56661154 -.00000060  00000+0  28926-3 0  9992
2 25624  51.9951 251.8699 0001991 126.7026   9.4148 12.32504680163787
GLOBALSTAR M022         
1 25649U 99012A   24221.96896046 -.00000043  00000+0  53258-3 0  9999
2 25649  52.0045  59.6438 0001643 277.7291 231.0140 12.02485973138811
GLOBALSTAR M046         
1 25651U 99012C   24221.87869419  .00000006  00000+0  10412-2 0  9998
2 25651  52.0070  21.4234 0002150  12.0607 154.6692 12.09395581145876
GLOBALSTAR M037         
1 25652U 99012D   24221.93489924 -.00000109  00000+0 -28466-4 0  9991
2 25652  52.0008  54.9683 0001388 189.2182 318.4323 12.62413387171834
